{"type":"FeatureCollection","features":[{"type":"Feature","geometry":{"type":"MultiPolygon","coordinates":[[[[10.600547886823152,46.917575535548586],[10.60687940051755,46.92223017843432],[10.607109991393818,46.91773370718424],[10.600547886823152,46.917575535548586]]],[[[10.600085558923466,46.926568450879444],[10.593754123325175,46.921913428693735],[10.593522386218382,46.92640987274119],[10.600085558923466,46.926568450879444]]],[[[10.586262144961717,46.93974020372004],[10.592826939943892,46.93989920192136],[10.593522386218382,46.92640987274119],[10.58695925266335,46.92625091482758],[10.586262144961717,46.93974020372004]]],[[[10.591667079043846,46.96238140570356],[10.59846618039295,46.95804363816371],[10.591899129647802,46.957884966226835],[10.591667079043846,46.96238140570356]]],[[[10.87443165464431,47.103913551781424],[10.887811133045142,47.099700820912126],[10.874640360835093,47.09941658395129],[10.87443165464431,47.103913551781424]]],[[[10.887395915936404,47.108694803164],[10.893775366683123,47.11333337478406],[10.893982470220173,47.10883637390983],[10.887395915936404,47.108694803164]]],[[[10.086303555451922,47.160676897781165],[10.073676396233415,47.151309419982006],[10.073122641880111,47.16029990924684],[10.086303555451922,47.160676897781165]]],[[[10.106349387247919,47.15674419811923],[10.11266594326273,47.16142629968509],[10.112939496037948,47.156930960906486],[10.106349387247919,47.15674419811923]]],[[[9.980007128235293,47.1711033292245],[9.993473798049967,47.16699604709894],[9.980291983868437,47.16660831865106],[9.980007128235293,47.1711033292245]]],[[[9.755319707220071,47.173266926859924],[9.768804289402182,47.16918621685179],[9.755623632661656,47.16877249749857],[9.755319707220071,47.173266926859924]]],[[[10.006373181447898,47.171877326450065],[10.0126827018193,47.17656496254789],[10.012964814869958,47.17206987249606],[10.006373181447898,47.171877326450065]]],[[[10.191223690372867,47.172628946870006],[10.197549636560101,47.1773063340098],[10.197816069722782,47.17281079926126],[10.191223690372867,47.172628946870006]]],[[[10.455197793825967,47.17510940701787],[10.461547304097873,47.17977211185208],[10.461791348855304,47.175275986642866],[10.455197793825967,47.17510940701787]]],[[[9.75440762145678,47.186750200961114],[9.741833048270566,47.17734603967449],[9.72834431288661,47.181423554907866],[9.728038000427096,47.185917906930854],[9.75440762145678,47.186750200961114]]],[[[10.051121326190076,47.19569305371083],[10.05827282616486,47.18689262033964],[10.03821202078238,47.190816849385634],[10.037931950625675,47.195311995180674],[10.051121326190076,47.19569305371083]]],[[[10.709700127029656,47.235282779011975],[10.702874530455649,47.23962714242607],[10.696047813166587,47.243971095659184],[10.709253573753898,47.24427599752404],[10.709700127029656,47.235282779011975]]],[[[10.715856511024203,47.244427875319836],[10.70242678036701,47.24862033047212],[10.702202848237917,47.253116920906685],[10.71518807824926,47.25791772375516],[10.715856511024203,47.244427875319836]]],[[[10.71518807824926,47.25791772375516],[10.721570409350123,47.26256588197761],[10.721792735231784,47.2580692578899],[10.71518807824926,47.25791772375516]]],[[[9.748620278459647,47.27214373901361],[9.754918880127379,47.276845578823135],[9.75522343488005,47.27235119208398],[9.748620278459647,47.27214373901361]]],[[[9.582920190981573,47.27582113895787],[9.570034735483038,47.2708920401291],[9.569394113124023,47.279879798376754],[9.575997515502264,47.280097616810934],[9.582920190981573,47.27582113895787]]],[[[10.83940901132451,47.287712571649855],[10.826618697590263,47.27842910727109],[10.826191667605647,47.28742273412776],[10.83940901132451,47.287712571649855]]],[[[10.15069118751413,47.29758543527127],[10.157028501026524,47.30226501675325],[10.157299010044609,47.29776962999238],[10.15069118751413,47.29758543527127]]],[[[10.885253781524366,47.29770879079605],[10.898266553743445,47.302488729459085],[10.898474016358072,47.29799179194743],[10.885253781524366,47.29770879079605]]],[[[10.865213424015977,47.3017782975091],[10.871614233244442,47.30641803586116],[10.871823978781885,47.30192114902345],[10.865213424015977,47.3017782975091]]],[[[10.718230979303295,47.33001493021673],[10.725066990294865,47.32566969002454],[10.718453873250835,47.32551834622843],[10.718230979303295,47.33001493021673]]],[[[9.783405754998505,47.34529394348987],[9.784010754379187,47.3363050862103],[9.777399490642246,47.33609929941718],[9.776793368386405,47.34508812190204],[9.783405754998505,47.34529394348987]]],[[[10.047662324724069,47.357708237455014],[10.054277306520774,47.35789839075661],[10.054836341125844,47.348908168978134],[10.048222483432253,47.348718047828996],[10.047662324724069,47.357708237455014]]],[[[9.789414111024147,47.354488261232056],[9.795726167458545,47.35918780412286],[9.796027723833161,47.35469335257027],[9.789414111024147,47.354488261232056]]],[[[10.054277306520774,47.35789839075661],[10.067228948541805,47.3627726873531],[10.067507412814976,47.358277549356764],[10.054277306520774,47.35789839075661]]],[[[9.802039347592222,47.36388699566583],[9.808954670597787,47.359596873779],[9.802340393405379,47.35939253023542],[9.802039347592222,47.36388699566583]]],[[[10.842623248940535,47.35980612684795],[10.868463761503476,47.37387099893713],[10.862476633189386,47.36023745072082],[10.842623248940535,47.35980612684795]]],[[[10.04626109304426,47.38018365305979],[10.052878886768084,47.38037388677009],[10.053718081509466,47.366888599289595],[10.047101975228184,47.36669841382923],[10.04626109304426,47.38018365305979]]],[[[9.814369004608475,47.377778813721385],[9.820686068355897,47.38247696416039],[9.820985632356175,47.37798246096988],[9.814369004608475,47.377778813721385]]],[[[10.039081394769196,47.38898314656405],[10.045700266152704,47.38917379533713],[10.04626109304426,47.38018365305979],[10.03964334707544,47.379993036525846],[10.039081394769196,47.38898314656405]]],[[[9.965989751800667,47.39135561091902],[9.972895329815024,47.38705560089114],[9.966276990308758,47.38686074062129],[9.965989751800667,47.39135561091902]]],[[[9.673247133562727,47.40487256507409],[9.680178292822916,47.40059026070685],[9.673559384634903,47.40037847015159],[9.673247133562727,47.40487256507409]]],[[[10.568498249924913,47.40752103397158],[10.555726641351946,47.39820742264627],[10.555252460145365,47.4071998464626],[10.568498249924913,47.40752103397158]]],[[[9.991610399232098,47.40561760728922],[9.998515755353292,47.40131605992357],[9.991895532519976,47.40112268199976],[9.991610399232098,47.40561760728922]]],[[[10.607305782307417,47.42646063713029],[10.614163428350448,47.42212209240026],[10.607538541686047,47.42196433283713],[10.607305782307417,47.42646063713029]]],[[[10.698940788822247,47.451116957476565],[10.679508013995642,47.44166437982317],[10.679054560695247,47.450657246454334],[10.698940788822247,47.451116957476565]]],[[[10.725456296826408,47.45172453537929],[10.72590184339056,47.4427314881678],[10.719274038716717,47.442580194675564],[10.718827362560077,47.451573216284245],[10.725456296826408,47.45172453537929]]],[[[9.683060242218248,47.45473098248513],[9.689997160600573,47.45044811597511],[9.683371951960426,47.4502368946901],[9.683060242218248,47.45473098248513]]],[[[10.698715698813457,47.45561342423319],[10.705569608461843,47.45126942732957],[10.698940788822247,47.451116957476565],[10.698715698813457,47.45561342423319]]],[[[10.711974506229796,47.45591800612514],[10.70512051994939,47.46026238297545],[10.711750507832111,47.460414494983205],[10.711974506229796,47.45591800612514]]],[[[10.77185989577056,47.45277302827041],[10.771422107512985,47.46176623837386],[10.810773705277853,47.47164348013809],[10.79174771453575,47.45321662820213],[10.77185989577056,47.45277302827041]]],[[[10.810558072906803,47.47614014703561],[10.8174054239003,47.4717894780481],[10.810773705277853,47.47164348013809],[10.810558072906803,47.47614014703561]]],[[[10.877092531789621,47.47308618933399],[10.863617368245349,47.47729748258289],[10.850140050516732,47.48150718834885],[10.876672541225696,47.48207976355072],[10.877092531789621,47.47308618933399]]],[[[10.883515201351075,47.477725150442254],[10.889939002120704,47.48236374800257],[10.890147884022065,47.47786693873769],[10.883515201351075,47.477725150442254]]],[[[10.749765013501145,47.4972914983339],[10.756399791109635,47.49744102590178],[10.756840440950231,47.48844792647436],[10.750206794956492,47.48829842421006],[10.749765013501145,47.4972914983339]]],[[[9.839407344422447,47.50014533098213],[9.846337515091966,47.49585303834131],[9.83970598000976,47.49565086067213],[9.839407344422447,47.50014533098213]]],[[[9.845741322787687,47.504842008888595],[9.852671595230253,47.50054933691544],[9.846039444383848,47.500347525751664],[9.845741322787687,47.504842008888595]]],[[[10.795775235685824,47.50732336288887],[10.809263505223544,47.50312006851157],[10.795992258204238,47.50282674770898],[10.795775235685824,47.50732336288887]]],[[[9.805041257329213,47.51710609738113],[9.811374209694605,47.521804659077695],[9.811675361640491,47.517310279179],[9.805041257329213,47.51710609738113]]],[[[9.738703063334437,47.51504317615321],[9.692580716116643,47.50908223451684],[9.692269444065658,47.513576303015846],[9.71093041249676,47.53218370779118],[9.73808827194086,47.524031547997076],[9.738703063334437,47.51504317615321]]],[[[10.602175014256758,47.525378391586045],[10.608579793125248,47.53003268811555],[10.60881290173441,47.525536458444684],[10.602175014256758,47.525378391586045]]],[[[10.708161327424875,47.532357795420474],[10.71502445176396,47.528013290060066],[10.708385938690713,47.52786136899746],[10.708161327424875,47.532357795420474]]],[[[9.823142827622709,47.544683910876785],[9.836717328286243,47.54059536806684],[9.823443105280656,47.54018951889663],[9.823142827622709,47.544683910876785]]],[[[12.423040640394067,46.7354145041086],[12.429583960789147,46.73546718342268],[12.42973662919019,46.72646935413371],[12.423194410499656,46.726416683721745],[12.423040640394067,46.7354145041086]]],[[[10.920124165317791,47.11389589349681],[10.92053387492814,47.10490179517155],[10.913947738539909,47.1047617609962],[10.913536913314472,47.11375583564562],[10.920124165317791,47.11389589349681]]],[[[11.131121072780804,47.113679032663846],[11.137895289718275,47.109309075355775],[11.13130805735734,47.1091816209574],[11.131121072780804,47.113679032663846]]],[[[11.40124539553405,47.11859242223486],[11.40767083659369,47.12320208767616],[11.407834404623472,47.118704252542294],[11.40124539553405,47.11859242223486]]],[[[11.862537841659805,47.12549936064915],[11.869253003635915,47.1210860699394],[11.862662840144873,47.121000949546385],[11.862537841659805,47.12549936064915]]],[[[11.266838651645699,47.18374000960545],[11.267190043386073,47.17474479389292],[11.260594373503963,47.174624823146566],[11.26024186262698,47.18362001856796],[11.266838651645699,47.18374000960545]]],[[[12.090689173816648,47.23621879087092],[12.097188696848672,47.240789317974404],[12.09729402217351,47.236290709425006],[12.090689173816648,47.23621879087092]]],[[[12.044126241028057,47.24920032548558],[12.050623335240946,47.25377349868392],[12.050732645568566,47.24927493954355],[12.044126241028057,47.24920032548558]]],[[[11.036120386350545,47.327853962256114],[11.023285834494681,47.318592600780555],[11.022891960318207,47.32758689343376],[11.036120386350545,47.327853962256114]]],[[[10.963163663960847,47.330863174891746],[10.976794421454617,47.32214302997519],[10.943931618759047,47.31695831084598],[10.943727950548414,47.321455320310065],[10.956954435566468,47.32173155236233],[10.963163663960847,47.330863174891746]]],[[[10.976593530515125,47.326640094840826],[10.983007127440876,47.33127357372513],[10.983207490073795,47.32677650011313],[10.976593530515125,47.326640094840826]]],[[[11.154810630037362,47.33918339752413],[11.161611805656081,47.33481211814112],[11.154996396036667,47.334686038053334],[11.154810630037362,47.33918339752413]]],[[[11.04214865070605,47.341478442032496],[11.048959438487811,47.33711387152698],[11.042344016875612,47.336981271673935],[11.04214865070605,47.341478442032496]]],[[[11.167488496790835,47.35292732142696],[11.168042606483457,47.339435196119084],[11.154624832399207,47.343680754177065],[11.160870803699696,47.35280158167808],[11.167488496790835,47.35292732142696]]],[[[12.578007605868368,47.343983538980666],[12.584562437081692,47.348526159960755],[12.584626462770126,47.344027243294484],[12.578007605868368,47.343983538980666]]],[[[11.107550701255335,47.36077641748391],[11.10793040337076,47.351781875550415],[11.101312997815995,47.351652688808706],[11.100932169303732,47.36064720888244],[11.107550701255335,47.36077641748391]]],[[[11.226509957028954,47.36753412536953],[11.226869442465404,47.35853920689082],[11.21363240084508,47.358294218058994],[11.213270661667384,47.36728909507988],[11.226509957028954,47.36753412536953]]],[[[11.001061299111417,47.3721543696269],[11.007482574042161,47.376786447996196],[11.007681024282181,47.37228935793571],[11.001061299111417,47.3721543696269]]],[[[10.967559487122463,47.38046772058665],[10.987621809862926,47.37638029940175],[10.987821950584678,47.37188324369943],[10.967963183768788,47.371473681577655],[10.967559487122463,47.38046772058665]]],[[[11.080500211570918,47.37374894362266],[11.086928648600672,47.37837655903448],[11.087120336142647,47.37387933445502],[11.080500211570918,47.37374894362266]]],[[[10.94087295089035,47.38441314937895],[10.954318227037543,47.380192717194305],[10.941077105331303,47.37991618120871],[10.94087295089035,47.38441314937895]]],[[[12.357842030744518,47.43679996072284],[12.36455524389118,47.432357690932726],[12.357925508495523,47.432301245781076],[12.357842030744518,47.43679996072284]]],[[[12.351211743969177,47.43674312693727],[12.357758538743115,47.44129867248879],[12.357842030744518,47.43679996072284],[12.351211743969177,47.43674312693727]]],[[[12.589782965938689,47.44754502294416],[12.589910356025921,47.438547306659565],[12.583279627940524,47.43850390845403],[12.583151106086515,47.447501617387275],[12.589782965938689,47.44754502294416]]],[[[10.917505094380891,47.460442788682215],[10.917917944950762,47.45144903436119],[10.911288512371524,47.45130885260981],[10.910874531472604,47.46030258320554],[10.917505094380891,47.460442788682215]]],[[[11.700551524728306,47.460798045113805],[11.713816310838695,47.46098666161937],[11.714093263289678,47.45199051067311],[11.70083074029147,47.4518019260966],[11.700551524728306,47.460798045113805]]],[[[10.93637273368459,47.483345601631925],[10.923517848606693,47.47407325013303],[10.923105776833552,47.48306699141656],[10.93637273368459,47.483345601631925]]],[[[11.772841689269383,47.484307099600464],[11.786245024335825,47.47998920399294],[11.772975198527973,47.479808972982426],[11.772841689269383,47.484307099600464]]],[[[11.806019255011291,47.48475483446012],[11.812524702344204,47.489341397546184],[11.812654835512785,47.48484322909916],[11.806019255011291,47.48475483446012]]],[[[11.78571538259405,47.49798175003165],[11.772708157203983,47.48880522265753],[11.772441024629408,47.4978014579783],[11.78571538259405,47.49798175003165]]],[[[12.582507837910395,47.492489964634046],[12.589081542106912,47.497032226619446],[12.58914536239584,47.492533406969336],[12.582507837910395,47.492489964634046]]],[[[11.751446605303508,47.53351274652563],[11.75822313611079,47.52910622871824],[11.75158206803224,47.52901468375402],[11.751446605303508,47.53351274652563]]],[[[12.49543104338058,47.54137646346565],[12.508859764793003,47.53247556748857],[12.495646648743037,47.52788026614107],[12.49543104338058,47.54137646346565]]],[[[11.924136371902165,47.53576816342988],[11.930658414583107,47.54034797642219],[11.930778575550725,47.535849719629404],[11.924136371902165,47.53576816342988]]],[[[11.744396762965462,47.54691495099956],[11.75104007812165,47.54700691152675],[11.75117561035415,47.54250886043964],[11.74453286290147,47.542416907698595],[11.744396762965462,47.54691495099956]]],[[[11.910608277910635,47.544600365594604],[11.917130237802947,47.549180939911395],[11.917251575580355,47.54468270474465],[11.910608277910635,47.544600365594604]]],[[[11.737616780077335,47.551320637451944],[11.744396762965462,47.54691495099956],[11.737753471084678,47.54682260592132],[11.737616780077335,47.551320637451944]]],[[[11.89043127096752,47.55334745098227],[11.897198703906966,47.54893274774931],[11.890554901233848,47.548849247836365],[11.89043127096752,47.55334745098227]]],[[[11.98357001835058,47.54998324783082],[11.990098995983816,47.55455966904771],[11.990214106810638,47.550061363253576],[11.98357001835058,47.54998324783082]]],[[[12.023434842451774,47.550446171041905],[12.029967344840665,47.55502032352573],[12.030079047568725,47.550521978722806],[12.023434842451774,47.550446171041905]]],[[[11.737480065690194,47.55581866500328],[11.757278384366552,47.56059264021646],[11.757683416456263,47.547098487500904],[11.737480065690194,47.55581866500328]]],[[[11.823859412718296,47.55698935371179],[11.830632898821968,47.55257858019303],[11.823988744056452,47.552491227035645],[11.823859412718296,47.55698935371179]]],[[[11.850438435415255,47.55733648807364],[11.857209737113902,47.552924146714325],[11.850565494850526,47.552838332003994],[11.850438435415255,47.55733648807364]]],[[[11.870498286439151,47.553094622283794],[11.88366270208399,47.55776175145189],[11.883786921515403,47.55326355937265],[11.870498286439151,47.553094622283794]]],[[[11.983222922501891,47.563478133480714],[11.989983865465295,47.55905797088958],[11.9833386409103,47.558979842235395],[11.983222922501891,47.563478133480714]]],[[[12.495071455150352,47.563870049274946],[12.501789285851206,47.55941983938219],[12.495143397407077,47.55937133988187],[12.495071455150352,47.563870049274946]]],[[[12.06297371435057,47.56439036503446],[12.069511387048408,47.568962254313256],[12.069619737095005,47.56446388359035],[12.06297371435057,47.56439036503446]]],[[[11.896460013992595,47.57592194907264],[11.896706328217649,47.566925564736366],[11.89006025325969,47.56684203653509],[11.889812802309487,47.575838406723044],[11.896460013992595,47.57592194907264]]],[[[11.703839476048856,47.568845031952485],[11.710068175411841,47.58243326650097],[11.736796142847492,47.57830874210249],[11.716993014751402,47.57353125038489],[11.717270016595903,47.56453527090798],[11.703839476048856,47.568845031952485]]],[[[11.823212424052947,47.57947992658173],[11.843155182194664,47.57974096482147],[11.843282918834394,47.575242836302955],[11.816824880859388,47.5703959421588],[11.823212424052947,47.57947992658173]]],[[[11.756873144371578,47.57408675664126],[11.770032717452251,47.578766893447025],[11.770166706883716,47.574268847412156],[11.756873144371578,47.57408675664126]]],[[[11.77681352257241,47.57435931566715],[11.789974938135465,47.57903716682756],[11.790107222329313,47.574539097906445],[11.77681352257241,47.57435931566715]]],[[[11.723225669165583,47.587118758632776],[11.730011474520992,47.582713952732256],[11.723363684504081,47.58262077545987],[11.723225669165583,47.587118758632776]]],[[[11.909388282738597,47.58958246724753],[11.922807220545785,47.58524869444057],[11.90951037621521,47.58508427544282],[11.909388282738597,47.58958246724753]]],[[[12.527681426604184,47.60459710539424],[12.534264414628849,47.609142413512146],[12.534333063784256,47.604643720572064],[12.527681426604184,47.60459710539424]]],[[[12.474173593586823,47.62220492035965],[12.48075415686017,47.62675327644978],[12.48082741130993,47.62225463305488],[12.474173593586823,47.62220492035965]]],[[[12.54716355796379,47.63622661141181],[12.560474889587617,47.63631719985269],[12.56732814799797,47.62286584352815],[12.554020212918546,47.622776048557945],[12.54716355796379,47.63622661141181]]],[[[12.86887687414294,46.6391528743173],[12.868955424430098,46.63015465826867],[12.86242464750874,46.63012741840839],[12.862344999256804,46.639125629851954],[12.86887687414294,46.6391528743173]]],[[[13.280375708586844,46.658103600637276],[13.28691415846136,46.65360744452155],[13.280380399010179,46.653604404279214],[13.280375708586844,46.658103600637276]]],[[[13.299960374205506,46.685106802513836],[13.306495488076207,46.689607916978154],[13.306497983627217,46.68510870897853],[13.299960374205506,46.685106802513836]]],[[[13.156102962930696,46.69396748600229],[13.162627037187113,46.698476921706174],[13.162641639916194,46.69397772184522],[13.156102962930696,46.69396748600229]]],[[[13.162612431996807,46.702976122945266],[13.182218823080648,46.707503768739635],[13.182231779325804,46.70300456374072],[13.162612431996807,46.702976122945266]]],[[[12.979319728556145,46.72954135662125],[12.985892203580912,46.72506265388579],[12.979349774283511,46.72504218406525],[12.979319728556145,46.72954135662125]]],[[[13.326010924184779,47.211522162437205],[13.33261383289126,47.20702336636101],[13.326011786557775,47.20702296988322],[13.326010924184779,47.211522162437205]]],[[[12.916475039722325,47.233246576981266],[12.923080263680054,47.2332706854633],[12.92315048252805,47.22427244314781],[12.916546381337954,47.224248338748495],[12.916475039722325,47.233246576981266]]],[[[13.352464299310517,47.35099542430798],[13.345843428723132,47.346497050641155],[13.34584425358965,47.35099617656629],[13.352464299310517,47.35099542430798]]],[[[13.352464299310517,47.35099542430798],[13.359086297934065,47.355493411934184],[13.359084344798283,47.350994288753725],[13.352464299310517,47.35099542430798]]],[[[13.06755166032156,47.400171570275916],[13.074155495505508,47.40468599826328],[13.074177838859585,47.40018693067603],[13.06755166032156,47.400171570275916]]],[[[13.001118676032059,47.426991130237006],[12.994518303214049,47.42247250487426],[12.994489153800652,47.42697153979137],[13.001118676032059,47.426991130237006]]],[[[13.001118676032059,47.426991130237006],[13.007720180097254,47.43150937198876],[13.007748203144475,47.427010336845605],[13.001118676032059,47.426991130237006]]],[[[13.166858067231844,47.42735614337039],[13.173473804107886,47.43186481922369],[13.173487685004952,47.42736575393818],[13.166858067231844,47.42735614337039]]],[[[13.140322912417743,47.43181292353263],[13.1469369389963,47.436323129165075],[13.146953085431736,47.43182407042497],[13.140322912417743,47.43181292353263]]],[[[12.901565169179912,47.44015397719856],[12.908196310187813,47.44017894766109],[12.908269344879484,47.43118094234211],[12.901639335463726,47.431155976110816],[12.901565169179912,47.44015397719856]]],[[[13.412180698639899,47.44545236589171],[13.418805549608768,47.44094870927851],[13.41217421096158,47.44095330221255],[13.412180698639899,47.44545236589171]]],[[[12.629514034957097,47.45229626785509],[12.636206284051553,47.44783811098484],[12.629574350088582,47.44779739314871],[12.629514034957097,47.45229626785509]]],[[[13.040769892168715,47.44959579513289],[13.047377625872896,47.45411173438686],[13.04740227590435,47.449612705877534],[13.040769892168715,47.44959579513289]]],[[[13.13362361248365,47.44979760122797],[13.140239322724486,47.45430818108092],[13.140256046378077,47.449809135910996],[13.13362361248365,47.44979760122797]]],[[[13.166785809569696,47.44985143457511],[13.173404364021915,47.45436009879925],[13.173418256787892,47.44986104922299],[13.166785809569696,47.44985143457511]]],[[[12.642660648787224,47.46137507982023],[12.649352938508914,47.45691616143451],[12.642719852039194,47.45687620475881],[12.642660648787224,47.46137507982023]]],[[[13.053938303681994,47.46762533279293],[13.054010579983043,47.45412826253055],[13.047377625872896,47.45411173438686],[13.0473036505009,47.46760880044449],[13.053938303681994,47.46762533279293]]],[[[12.821684654661173,47.47131709315219],[12.828276307057918,47.47584563584151],[12.828319676762892,47.47134668824971],[12.821684654661173,47.47131709315219]]],[[[13.067184655070465,47.47215626463665],[13.053914203345604,47.47212434963194],[13.05389009888942,47.476623363134074],[13.067138708825862,47.48115429368959],[13.067184655070465,47.47215626463665]]],[[[13.073819886870307,47.47217164589036],[13.09368419221474,47.481213523751734],[13.100360851394731,47.47222932923989],[13.073819886870307,47.47217164589036]]],[[[13.45868766354874,47.481404515076406],[13.46531305851834,47.47689819545182],[13.45867719968164,47.47690548090757],[13.45868766354874,47.481404515076406]]],[[[13.33923205367585,47.485968996066745],[13.345868234443806,47.48146958999392],[13.339231791549055,47.481469959791944],[13.33923205367585,47.485968996066745]]],[[[13.25958796105748,47.485943460907265],[13.266218990523859,47.49044673335125],[13.266224964918774,47.48594770232279],[13.25958796105748,47.485943460907265]]],[[[13.312677997135019,47.49946372025462],[13.319318146862713,47.49496586197978],[13.312680003502445,47.494964694522686],[13.312677997135019,47.49946372025462]]],[[[12.701768088675857,47.51120861844712],[12.688543510569586,47.50663552985993],[12.688432814291627,47.51563324689637],[12.695073337791,47.515670556405354],[12.701768088675857,47.51120861844712]]],[[[12.648648632811419,47.51090247917586],[12.655230340701294,47.51544093249404],[12.655288530659405,47.51094209206605],[12.648648632811419,47.51090247917586]]],[[[12.801140018290658,47.5342108092075],[12.80782812843201,47.52974269925513],[12.801185755904369,47.52971191783012],[12.801140018290658,47.5342108092075]]],[[[13.199610045761224,47.58036678081097],[13.212918427262691,47.5758828699621],[13.199621729690255,47.575867829007855],[13.199610045761224,47.58036678081097]]],[[[13.093123732237487,47.602685633819505],[13.106407504843768,47.60721192088638],[13.106427173486491,47.60271300609026],[13.093123732237487,47.602685633819505]]],[[[12.614091782830338,47.60967180329855],[12.620682877492516,47.61421215288406],[12.620744134659267,47.60971341577287],[12.614091782830338,47.60967180329855]]],[[[13.21946692940641,47.62087916658818],[13.232792728967306,47.611894069066494],[13.219486912994595,47.611881328966],[13.21946692940641,47.62087916658818]]],[[[12.5939441527254,47.623040810771705],[12.600661168715158,47.6185848715837],[12.594007709789944,47.61854209646506],[12.5939441527254,47.623040810771705]]],[[[12.746837958810094,47.637423599858515],[12.753543829555442,47.63295874738536],[12.746888437537967,47.63292482337437],[12.746837958810094,47.637423599858515]]],[[[12.593880584771343,47.62753952078497],[12.58696933618134,47.64549113508671],[12.600283082729174,47.64557711422348],[12.607127353493862,47.63212341317135],[12.593880584771343,47.62753952078497]]],[[[12.76670830856127,47.6465217813728],[12.766854639147752,47.633025439466955],[12.75349392090054,47.63745752674497],[12.760051189013057,47.646488619557566],[12.76670830856127,47.6465217813728]]],[[[12.620131090443511,47.65470059291491],[12.62684993383176,47.65024315372557],[12.620192442152323,47.650201894929715],[12.620131090443511,47.65470059291491]]],[[[12.593498948210069,47.65453168915356],[12.600093893894751,47.659073176093],[12.600156967650033,47.65457449328069],[12.593498948210069,47.65453168915356]]],[[[12.959154281233268,47.73279297381996],[12.9525190280348,47.72827220073122],[12.952486104063192,47.73277095377316],[12.959154281233268,47.73279297381996]]],[[[12.959154281233268,47.73279297381996],[12.965790678903009,47.7373133596181],[12.965822463959649,47.73281460781609],[12.959154281233268,47.73279297381996]]],[[[13.139146119044423,47.746737935740015],[13.145799790588587,47.751247923081955],[13.145816131908754,47.74674914907346],[13.139146119044423,47.746737935740015]]],[[[13.165826186960864,47.746780472119575],[13.17248215959533,47.75128891830756],[13.172496210470317,47.7467901408161],[13.165826186960864,47.746780472119575]]],[[[13.132441133003821,47.75572387533917],[13.139095368530736,47.760234239729925],[13.139112288277062,47.755735476801824],[13.132441133003821,47.75572387533917]]],[[[13.392738873875068,47.86835794693256],[13.399418977363664,47.86385583259556],[13.39273400674283,47.863859300962154],[13.392738873875068,47.86835794693256]]],[[[13.252320729121823,47.88183727976267],[13.259014637787761,47.87734331276168],[13.252327944597065,47.877338652644724],[13.252320729121823,47.88183727976267]]],[[[13.29901331779074,48.04830670454971],[13.285596044981704,48.04830162601722],[13.292300893589426,48.05280274648767],[13.292285737136064,48.07079622519367],[13.298997271188787,48.07079857128693],[13.29901331779074,48.04830670454971]]],[[[13.339266216179483,48.06630612886591],[13.345976325302747,48.061807388407935],[13.339265948672258,48.061807761939754],[13.339266216179483,48.06630612886591]]],[[[13.359401090779805,48.0708022024492],[13.359397078036531,48.06180547596332],[13.352686701790866,48.06180662641577],[13.352689555305403,48.070803353091534],[13.359401090779805,48.0708022024492]]],[[[13.29228194637643,48.07529457738375],[13.298990848639187,48.07979526902001],[13.298994060193332,48.07529692367862],[13.29228194637643,48.07529457738375]]],[[[13.366120387190989,48.08429569988828],[13.366112625911502,48.07080066328067],[13.359401090779805,48.0708022024492],[13.359407112465329,48.08429723944055],[13.366120387190989,48.08429569988828]]],[[[12.875778231519929,48.11487441607311],[12.875977145978013,48.09238328947295],[12.86254875991753,48.09232923247885],[12.86242595006658,48.1058239163993],[12.848994110513884,48.10576829055966],[12.855626956957005,48.11479271289773],[12.875778231519929,48.11487441607311]]],[[[12.889405559540261,48.092435791783856],[12.882573762255607,48.10590443939348],[12.889289713346658,48.10593050285173],[12.889173807028008,48.119425148644346],[12.895891506629706,48.11945082987331],[12.895967622870986,48.110454402273646],[12.916117276801822,48.11052910004814],[12.916226178087728,48.097034385087426],[12.889405559540261,48.092435791783856]],[[12.889289713346658,48.10593050285173],[12.89604371278451,48.10145794555204],[12.896005671117864,48.105956177539134],[12.889289713346658,48.10593050285173]]],[[[13.561293684189739,46.64439517179382],[13.56784577071528,46.648881121332764],[13.567826291682724,46.64438194712804],[13.561293684189739,46.64439517179382]]],[[[13.568040741161846,46.693872951105725],[13.57460199375391,46.69836165390893],[13.574581921201101,46.69386248570622],[13.568040741161846,46.693872951105725]]],[[[13.541920735509317,46.702922019515796],[13.561521051526999,46.69838538030463],[13.541903418635803,46.69842282271551],[13.541920735509317,46.702922019515796]]],[[[13.774167013802002,47.11169822332794],[13.780719345342751,47.10717353825735],[13.774129860995062,47.10719909233725],[13.774167013802002,47.11169822332794]]],[[[13.780757057002237,47.1116726670903],[13.787385370808037,47.11614585479538],[13.787347093810226,47.11164672929326],[13.780757057002237,47.1116726670903]]],[[[13.57732258223495,47.301251709133226],[13.583957431309829,47.305736655725596],[13.583936332414762,47.3012375498149],[13.57732258223495,47.301251709133226]]],[[[13.790235987850906,47.44907604578767],[13.796868203726607,47.44904955914606],[13.796789555021949,47.44005163075406],[13.79015847110176,47.44007811291886],[13.790235987850906,47.44907604578767]]],[[[13.51835317518881,47.46332897800968],[13.524971193460821,47.458819197598494],[13.518337621091169,47.4588299372547],[13.51835317518881,47.46332897800968]]],[[[13.485207894616687,47.472374998983604],[13.491829885547393,47.46786713998853],[13.485195168042521,47.467875960769916],[13.485207894616687,47.472374998983604]]],[[[13.458729536860119,47.4994006175795],[13.465379270516314,47.50389234538211],[13.465368230478472,47.499393329051934],[13.458729536860119,47.4994006175795]]],[[[13.605036673845811,47.54863922829537],[13.611705087006047,47.553122396675796],[13.611681516243898,47.54862346422092],[13.605036673845811,47.54863922829537]]],[[[13.65838823524136,47.579994717752484],[13.665037022740398,47.57997586481716],[13.66498073572256,47.57097806642922],[13.658333085861369,47.57099691617852],[13.65838823524136,47.579994717752484]]],[[[13.725142212229851,47.61577977096668],[13.73176162072098,47.61125820659554],[13.725108901016903,47.611280922353224],[13.725142212229851,47.61577977096668]]],[[[13.498937160406589,47.62082314657276],[13.50557668315909,47.616314618706404],[13.498923222382682,47.61632423450955],[13.498937160406589,47.62082314657276]]],[[[13.70530877371054,47.633840987030595],[13.69199758622578,47.633882969798094],[13.685401827667409,47.642901054955544],[13.705372037834685,47.64283864824887],[13.70530877371054,47.633840987030595]]],[[[13.512350834238498,47.65229578049135],[13.518993184770597,47.64778650802302],[13.512335738605751,47.64779690039188],[13.512350834238498,47.65229578049135]]],[[[13.572293112246692,47.65668723085053],[13.578934937097047,47.65217301088213],[13.572272879086432,47.65218836426639],[13.572293112246692,47.65668723085053]]],[[[13.658857767415297,47.65647536276333],[13.665544473304077,47.6609553036908],[13.665516240578802,47.656456482721545],[13.658857767415297,47.65647536276333]]],[[[13.552354465856137,47.665724235198084],[13.558995078255164,47.66121266603185],[13.55233593799452,47.661225374259885],[13.552354465856137,47.665724235198084]]],[[[13.465789079776311,47.670353236597414],[13.46576686161159,47.66135549726707],[13.459107685851977,47.66136280795564],[13.45912876241379,47.670360548519426],[13.465789079776311,47.670353236597414]]],[[[13.685581479832273,47.66989396406128],[13.692272176115422,47.67437233754158],[13.692241645226266,47.66987353686238],[13.685581479832273,47.66989396406128]]],[[[13.63229998020723,47.67004350031958],[13.64564691763312,47.67450724189866],[13.645620383155793,47.67000842981625],[13.63229998020723,47.67004350031958]]],[[[13.758879235403782,47.67414683904994],[13.765576725937278,47.678620943230925],[13.76553990880217,47.67412216828827],[13.758879235403782,47.67414683904994]]],[[[13.452488385027177,47.67936519836635],[13.47246107811928,47.67484440127403],[13.452478413284886,47.67486633889029],[13.452488385027177,47.67936519836635]]],[[[13.679038895771715,47.687909194470016],[13.678980092469098,47.67891160928802],[13.672318774984868,47.67893126862687],[13.672376435968475,47.68792885713303],[13.679038895771715,47.687909194470016]]],[[[13.786061913644618,47.7370281713069],[13.792769759016698,47.74150062618873],[13.792730563970427,47.73700192701595],[13.786061913644618,47.7370281713069]]],[[[13.766055923319163,47.737104587731906],[13.779431307019756,47.74155273310395],[13.779393256695325,47.737054029523584],[13.766055923319163,47.737104587731906]]],[[[13.646098700035973,47.75098632382281],[13.652796375440504,47.75546690645239],[13.652769186294815,47.75096818259786],[13.646098700035973,47.75098632382281]]],[[[13.51269874814261,47.755768741209984],[13.519354184323191,47.7512595576673],[13.512683592924567,47.75126997024398],[13.51269874814261,47.755768741209984]]],[[[13.612793712349747,47.76006869725718],[13.619441036047796,47.755553758090585],[13.612769955259447,47.75556996976977],[13.612793712349747,47.76006869725718]]],[[[13.479367480234579,47.76481254960164],[13.492712121703306,47.76479519578649],[13.492685240620538,47.75579766422864],[13.479342890591115,47.755815015113775],[13.479367480234579,47.76481254960164]]],[[[13.626137015331897,47.76003588490883],[13.632834140290036,47.76451761753224],[13.63280866046476,47.760018899360965],[13.626137015331897,47.76003588490883]]],[[[13.519385642875264,47.76025709276254],[13.532745987648735,47.76473386336434],[13.5327291085162,47.760235105318515],[13.519385642875264,47.76025709276254]]],[[[13.599427781559593,47.75560123447686],[13.599473008454963,47.76459868963025],[13.61286500807546,47.77356484896872],[13.626186833484304,47.769033318988534],[13.599427781559593,47.75560123447686]]],[[[13.813023006489802,47.76841161792122],[13.819654110677256,47.76388515333652],[13.812982052235338,47.76391295602797],[13.813023006489802,47.76841161792122]]],[[[13.652850767725296,47.76446433889441],[13.659550743789909,47.76894451375268],[13.659522967669133,47.76444580678758],[13.652850767725296,47.76446433889441]]],[[[13.539470663155248,47.77821852957198],[13.546126646676342,47.77370782559049],[13.539453202135668,47.7737197879871],[13.539470663155248,47.77821852957198]]],[[[13.60623803586829,47.78257809102989],[13.612888781472462,47.77806355586324],[13.606214831674446,47.778079388014696],[13.60623803586829,47.78257809102989]]],[[[13.55949270699193,47.77818148018749],[13.572861050417298,47.78265357964904],[13.57284071992502,47.77815484866344],[13.55949270699193,47.77818148018749]]],[[[13.492765911531224,47.78279019708846],[13.499426497256378,47.778282195869544],[13.492752460614966,47.77829145455902],[13.492765911531224,47.78279019708846]]],[[[13.579560819356796,47.78713626364451],[13.586214443130991,47.782623273015474],[13.57953990471488,47.78263756084839],[13.579560819356796,47.78713626364451]]],[[[13.566225996921798,47.79166453824007],[13.572922062832392,47.79614974102654],[13.57290172187009,47.79165102585831],[13.566225996921798,47.79166453824007]]],[[[13.686572875953134,47.818351873097804],[13.693282637450698,47.822830023659726],[13.693251933265465,47.81833138881811],[13.686572875953134,47.818351873097804]]],[[[13.786835628172243,47.8270012174995],[13.800195853862649,47.82694825330053],[13.800116066067355,47.817951053472825],[13.786758137100602,47.818004008709515],[13.786835628172243,47.8270012174995]]],[[[13.686663281570816,47.8318477663027],[13.693313346910337,47.827328653004514],[13.686633141188349,47.8273491407496],[13.686663281570816,47.8318477663027]]],[[[13.800315586976339,47.840444011514265],[13.806956920443339,47.83591836424521],[13.800275669079985,47.83594543101707],[13.800315586976339,47.840444011514265]]],[[[13.827042848374818,47.84033341431379],[13.833767443684868,47.84480336105742],[13.833724645832392,47.840304797952776],[13.827042848374818,47.84033341431379]]],[[[13.599858064391272,47.8410762068773],[13.606563313143694,47.84555936987585],[13.606540053110498,47.84106074281803],[13.599858064391272,47.8410762068773]]],[[[13.81372030579239,47.84488805683582],[13.800395443353244,47.84944115564759],[13.800515279405657,47.86293682927851],[13.813884672416119,47.86288228125246],[13.81372030579239,47.84488805683582]]],[[[13.613365107462913,47.868036561162405],[13.620026107212185,47.86352171928786],[13.613341252280156,47.86353796389162],[13.613365107462913,47.868036561162405]]],[[[13.579937897494966,47.86811198550261],[13.586601792550773,47.86359907227154],[13.579916918112822,47.86361338185608],[13.579937897494966,47.86811198550261]]],[[[13.620074972091134,47.87251890530951],[13.613388966746019,47.87253515266047],[13.606679673273705,47.86805242010375],[13.6067219436444,47.877052198949265],[13.620074972091134,47.87251890530951]]],[[[13.64013296252945,47.872467840847484],[13.653528176477733,47.87693307253967],[13.653504933834226,47.87243186253567],[13.64013296252945,47.872467840847484]]],[[[13.787258886502485,47.87648819408644],[13.793984755678268,47.880960438665305],[13.787297708271158,47.8809867493299],[13.787375371845512,47.88998384220661],[13.800711775797897,47.88543228577024],[13.800515279405657,47.86293682927851],[13.787258886502485,47.87648819408644]]],[[[13.633493975216656,47.88148504675448],[13.640154989091819,47.87696904417746],[13.63346838860231,47.87698644934085],[13.633493975216656,47.88148504675448]]],[[[13.466324605879938,47.88629301001517],[13.486401025922467,47.890767271942394],[13.499763743709307,47.886250494390694],[13.499735586718087,47.87725326029362],[13.466324605879938,47.88629301001517]]],[[[13.626831810329135,47.88600065925045],[13.633545161647655,47.890482223984016],[13.633519566231392,47.88598363831145],[13.626831810329135,47.88600065925045]]],[[[14.114450758493733,46.497954917798836],[14.12089944025276,46.49341077423686],[14.1143855093068,46.4934560211486],[14.114450758493733,46.497954917798836]]],[[[14.023362210184613,46.507546726340834],[14.029819754999208,46.503007800805946],[14.023304586985125,46.50304777450564],[14.023362210184613,46.507546726340834]]],[[[14.121031041802654,46.502408562455656],[14.108065709301579,46.50699759986554],[14.108130444960489,46.51149650787927],[14.121162687482311,46.511406360775815],[14.121031041802654,46.502408562455656]]],[[[13.93229121205602,46.52156379662957],[13.938758146200172,46.51703009201984],[13.932241212056736,46.517064793486846],[13.93229121205602,46.52156379662957]]],[[[14.191343307131659,46.82585984824552],[14.204378904735899,46.821261112638666],[14.191271164620845,46.821360902473316],[14.191343307131659,46.82585984824552]]],[[[14.40188764130367,46.864570112215645],[14.40853714501842,46.8690070075856],[14.408446609938382,46.86450821296289],[14.40188764130367,46.864570112215645]]],[[[14.370314901011952,46.92785748485162],[14.376969678616376,46.93229623513794],[14.376881703834492,46.92779741330229],[14.370314901011952,46.92785748485162]]],[[[14.36383494833623,46.93241600816211],[14.370489755487093,46.93685513856526],[14.370402320862695,46.932356311760685],[14.36383494833623,46.93241600816211]]],[[[13.97774748129105,47.05224083967716],[13.977638777461207,47.04324271583991],[13.964475891873226,47.04331624657376],[13.96463561603733,47.056813449787455],[13.97774748129105,47.05224083967716]]],[[[13.84006714677885,47.11142549084648],[13.846613821699652,47.10689701355925],[13.840024405522442,47.10692638288469],[13.84006714677885,47.11142549084648]]],[[[13.932427249768248,47.11997770157693],[13.939069380879767,47.12444204606685],[13.939018231292996,47.11994298221879],[13.932427249768248,47.11997770157693]]],[[[13.873199166362816,47.12927118552667],[13.879745214468842,47.124740807536114],[13.873153600058872,47.124772095029165],[13.873199166362816,47.12927118552667]]],[[[14.018398696772469,47.14199170278428],[14.024933897219071,47.137452988124686],[14.018340799005198,47.137492681740746],[14.018398696772469,47.14199170278428]]],[[[14.479925588682745,47.13829102097822],[14.486615949921788,47.14272330476562],[14.486518322983416,47.13822460338948],[14.479925588682745,47.13829102097822]]],[[[13.836960625687592,47.48037512377698],[13.843553415795451,47.475847008958674],[13.836917850799916,47.47587619829576],[13.836960625687592,47.48037512377698]]],[[[13.836960625687592,47.48037512377698],[13.830366702100749,47.48490285588982],[13.837003407877331,47.484874045860266],[13.836960625687592,47.48037512377698]]],[[[13.950350875229578,47.52931405054059],[13.943656694736928,47.52485057935749],[13.930373321024998,47.52492016374077],[13.930474937149436,47.5339178581121],[13.950350875229578,47.52931405054059]]],[[[14.495173367008656,47.53410194607851],[14.50191533727842,47.538533115049155],[14.501815668663255,47.53403464791906],[14.495173367008656,47.53410194607851]]],[[[13.850892406211933,47.54779974038601],[13.844247769968497,47.54782935393333],[13.837560241682985,47.543359711169245],[13.837646018243493,47.5523574505836],[13.850892406211933,47.54779974038601]]],[[[14.044067531265576,47.582763705952914],[14.037298594684735,47.573806995082236],[14.024061848070335,47.57838618360786],[14.024120720416523,47.5828849423799],[14.044067531265576,47.582763705952914]]],[[[13.911037956150345,47.57900769724798],[13.904535333831786,47.592537222930154],[13.924536428336085,47.596935549977154],[13.937735012223836,47.58786906211716],[13.937580581400436,47.57437266268023],[13.911037956150345,47.57900769724798]]],[[[14.10403882442006,47.59137663005141],[14.117405596843426,47.59578563333993],[14.117338726393422,47.59128693715555],[14.10403882442006,47.59137663005141]]],[[[14.203935489180862,47.599663680318],[14.203786939103036,47.59066639708919],[14.197137150089661,47.59071644083429],[14.197284561917897,47.59971373253198],[14.203935489180862,47.599663680318]]],[[[14.416757918587976,47.59785871332501],[14.423315312811475,47.59329747381217],[14.416665425501279,47.59336022649615],[14.416757918587976,47.59785871332501]]],[[[14.117405596843426,47.59578563333993],[14.124123550936817,47.600238893773906],[14.124056099833494,47.59574020556217],[14.117405596843426,47.59578563333993]]],[[[14.423501453016373,47.60229443267201],[14.430058815388499,47.59773281233464],[14.42340837495085,47.597795955330824],[14.423501453016373,47.60229443267201]]],[[[14.257221289647106,47.603748001498985],[14.26379325084822,47.59919588361108],[14.257142441493988,47.5992494011678],[14.257221289647106,47.603748001498985]]],[[[13.944592959702492,47.60582916657522],[13.93139104747983,47.614896408998526],[13.938095659192479,47.61936051724321],[13.951350213711974,47.61479127795245],[13.944592959702492,47.60582916657522]]],[[[14.27092417181576,47.62613346500962],[14.277659009400848,47.63057771088732],[14.277578370760418,47.626079149820626],[14.27092417181576,47.62613346500962]]],[[[14.071292268482782,47.62758378519642],[14.078010378836579,47.632039712056795],[14.0779468361833,47.62754102728814],[14.071292268482782,47.62758378519642]]],[[[14.098302155547241,47.65440241854679],[14.104894221368305,47.64985944917328],[14.098236847275517,47.64990376685057],[14.098302155547241,47.65440241854679]]],[[[14.131659936007448,47.65867558505536],[14.144907526527682,47.65408407415217],[14.131591764137344,47.654176956925674],[14.131659936007448,47.65867558505536]]],[[[14.218672736450007,47.68503558691559],[14.22541070754886,47.68948283530569],[14.225334457932773,47.68498429717984],[14.218672736450007,47.68503558691559]]],[[[13.94600277683073,47.727294460169475],[13.939335450285128,47.72732957805038],[13.932616927039447,47.722865650091336],[13.932719311464197,47.73186296486133],[13.94600277683073,47.727294460169475]]],[[[14.019342754829335,47.726882688124526],[14.032796735940828,47.735800012511326],[14.039344361340843,47.72676228094884],[14.019342754829335,47.726882688124526]]],[[[13.832827586984223,47.74583371907154],[13.846210860464101,47.75027409975296],[13.85274810264009,47.736748355152194],[13.839497332988683,47.74580476737878],[13.832827586984223,47.74583371907154]]],[[[13.939749848846576,47.763318653755725],[13.946369351343384,47.75878489831883],[13.939698017912443,47.758820037008064],[13.939749848846576,47.763318653755725]]],[[[14.026365355967346,47.753834528316816],[14.013024053178615,47.75391368200057],[14.006526063419129,47.76744843615595],[13.986508850282595,47.76756314089396],[13.973273430252236,47.77663485656917],[14.013256599785716,47.7719080005946],[14.026365355967346,47.753834528316816]]],[[[13.86635831474654,47.76367971903816],[13.873076424101834,47.7681474657675],[13.873030313429764,47.76364882622345],[13.86635831474654,47.76367971903816]]],[[[13.833040879163569,47.76832704388941],[13.839756742308792,47.77279672706546],[13.839713488870991,47.76829807994643],[13.833040879163569,47.76832704388941]]],[[[14.020105781816659,47.78536427790683],[14.026721110866404,47.7808259348905],[14.02004702696685,47.78086572502385],[14.020105781816659,47.78536427790683]]],[[[13.933334356365227,47.7858464298855],[13.939957261571674,47.781313069021486],[13.933283054225031,47.78134783619644],[13.933334356365227,47.7858464298855]]],[[[13.846561442189815,47.78626327695742],[13.853280759673831,47.790732151517865],[13.853236329671681,47.7862335303518],[13.846561442189815,47.78626327695742]]],[[[13.83997312090955,47.79528988416256],[13.846605298766296,47.79076190064067],[13.83992983032812,47.79079126330199],[13.83997312090955,47.79528988416256]]],[[[14.487796425171158,47.80413672240779],[14.48759852051773,47.79514029455873],[14.480923077582593,47.79520676462156],[14.481119835295221,47.804203203727965],[14.487796425171158,47.80413672240779]]],[[[13.860046242990265,47.79969923721493],[13.86676843601352,47.804167310030614],[13.866722835679985,47.79966871000492],[13.860046242990265,47.79969923721493]]],[[[14.074136756296639,47.83002006520687],[14.074009867559296,47.82102311791937],[14.067330694234569,47.82106564505068],[14.067456434600947,47.830062599539325],[14.074136756296639,47.83002006520687]]],[[[14.47483465174126,47.82226213345834],[14.488291484422959,47.82662769604653],[14.488489627263045,47.83562404652539],[14.495170217504464,47.83555713906591],[14.494871306462652,47.8220626219351],[14.47483465174126,47.82226213345834]]],[[[14.06077610209896,47.830104747141355],[14.067519320993128,47.834561068446845],[14.067456434600947,47.830062599539325],[14.06077610209896,47.830104747141355]]],[[[14.31487275502115,47.841726199888306],[14.321639082999795,47.84616763492762],[14.321554330427794,47.84166934281119],[14.31487275502115,47.841726199888306]]],[[[13.880590664838838,47.84909073724027],[13.907322156164705,47.84896155075774],[13.907273029230023,47.844463022099724],[13.887178752435098,47.840061941486454],[13.880590664838838,47.84909073724027]]],[[[14.02779057793578,47.86179899452392],[14.034414908893662,47.857260304303175],[14.027731076259839,47.85730053867137],[14.02779057793578,47.86179899452392]]],[[[14.362084622899427,47.86381133330425],[14.368680132546347,47.85925350897592],[14.361996362669448,47.85931309371911],[14.362084622899427,47.86381133330425]]],[[[13.847308029536428,47.86273913889234],[13.860722455219745,47.86717769765014],[13.860677320144777,47.862679173043425],[13.847308029536428,47.86273913889234]]],[[[14.388912485138018,47.86806886589065],[14.395506192891235,47.86350951494551],[14.388821909846367,47.863570652496996],[14.388912485138018,47.86806886589065]]],[[[14.36903498438653,47.87724956541637],[14.375631622285056,47.87269134421994],[14.368946110055099,47.87275132665055],[14.36903498438653,47.87724956541637]]],[[[13.860854840669957,47.88067604021361],[13.847524890722818,47.88523454503415],[13.847612929602102,47.89423158364432],[13.860990341251611,47.89417159174279],[13.860854840669957,47.88067604021361]]],[[[14.649363769681681,46.5244813087041],[14.655770169807205,46.51990660084948],[14.649253624548653,46.51998281372453],[14.649363769681681,46.5244813087041]]],[[[14.7032200298464,46.591337893015314],[14.683418168784502,46.58257665317135],[14.683644473018836,46.59157364013129],[14.7032200298464,46.591337893015314]]],[[[15.963959614375835,46.74005430939841],[15.970500158487607,46.73990199336292],[15.969834810220126,46.72641214415208],[15.963295915461115,46.72656442162779],[15.963959614375835,46.74005430939841]]],[[[15.66959798252138,46.74651675221151],[15.695766297839791,46.74597335585367],[15.695567580397567,46.741476226310105],[15.682287006126215,46.73725150695811],[15.66959798252138,46.74651675221151]]],[[[15.957419033018315,46.74020624694988],[15.964180921830772,46.744550940081155],[15.963959614375835,46.74005430939841],[15.957419033018315,46.74020624694988]]],[[[15.663251819842042,46.75114884229616],[15.66959798252138,46.74651675221151],[15.663055820744193,46.74665165475388],[15.663251819842042,46.75114884229616]]],[[[15.755254254827264,46.75821964337388],[15.761593273367065,46.75358239012461],[15.755050482608162,46.75372261677562],[15.755254254827264,46.75821964337388]]],[[[15.787970615840653,46.75751466420149],[15.782045542797873,46.771147358326495],[15.795135217591131,46.77086340141576],[15.801264577555571,46.761726965575065],[15.787970615840653,46.75751466420149]]],[[[15.736635140648854,46.78112340560041],[15.73623059248436,46.77212927631489],[15.729685462590073,46.77226803520042],[15.730088908965827,46.78126218791385],[15.736635140648854,46.78112340560041]]],[[[15.605130439563167,46.77033518917582],[15.612634757184377,46.792690048846175],[15.63169793206744,46.77880121034188],[15.631117702427403,46.76530946828886],[15.605130439563167,46.77033518917582]]],[[[14.61670349720738,46.794847838992624],[14.623362148362697,46.79927210055255],[14.623253621647288,46.794773503536526],[14.61670349720738,46.794847838992624]]],[[[15.692002116900854,46.80906981338066],[15.691406312072965,46.7955783676033],[15.678112604181008,46.79135314748591],[15.678705000354999,46.80484466088966],[15.692002116900854,46.80906981338066]]],[[[15.606660992107589,46.806313540074704],[15.613018627107332,46.801684616426435],[15.606469560183065,46.80181624451375],[15.606660992107589,46.806313540074704]]],[[[15.5621266454633,46.8387060176377],[15.568868728108983,46.84307431978263],[15.568680351814647,46.8385769557037],[15.5621266454633,46.8387060176377]]],[[[16.033317028650227,47.07606468273501],[16.026735247270924,47.07622063251877],[16.02627930991056,47.0672276014166],[16.013117858463826,47.06753830589554],[16.01379848153847,47.081027929260976],[16.033317028650227,47.07606468273501]]],[[[16.05329239426259,47.08009100886419],[16.033545612151414,47.08056118307396],[16.04127419611331,47.10288725337223],[16.06056724467408,47.09342285580081],[16.05329239426259,47.08009100886419]]],[[[16.001537113795052,47.09932343826901],[16.007895325380066,47.0946723995994],[16.001311161791083,47.094826878103866],[16.001537113795052,47.09932343826901]]],[[[16.087601975631703,47.10627809981586],[16.093953472135528,47.10162225668427],[16.087368700312286,47.1017817148818],[16.087601975631703,47.10627809981586]]],[[[15.988817346248577,47.10862444608837],[16.001537113795052,47.09932343826901],[15.988367557218213,47.099631278266536],[15.988817346248577,47.10862444608837]]],[[[15.970176153507937,47.13156651163589],[15.983353746653922,47.131260777149556],[15.982231395797658,47.10877782043667],[15.96269603780667,47.11373229003958],[15.970176153507937,47.13156651163589]]],[[[16.095123032005755,47.12410409799334],[16.088535472388106,47.124263623561625],[16.081714997421255,47.119926376016544],[16.082180788451936,47.12891915819139],[16.095123032005755,47.12410409799334]]],[[[14.895364038729697,47.13785964573495],[14.901823250270576,47.133270895113554],[14.895231744361277,47.13336135536065],[14.895364038729697,47.13785964573495]]],[[[15.990618028097769,47.144597053085924],[16.004025115313695,47.14878549504941],[16.00334610918966,47.13529586328712],[16.016069725352835,47.125993245798895],[15.989717381872495,47.12661076288484],[15.990618028097769,47.144597053085924]]],[[[16.075824988709975,47.13357433675298],[16.069236194810035,47.13373274551794],[16.07016394337342,47.15171838926744],[16.057212690587725,47.15653060279765],[16.076987564024467,47.15605631996822],[16.075824988709975,47.13357433675298]]],[[[15.951296880603527,47.15000884631207],[15.958110545469953,47.154353893244156],[15.957888042681018,47.149857262328915],[15.951296880603527,47.15000884631207]]],[[[15.90559380309327,47.1600527174966],[15.91240501107422,47.16440049457955],[15.912186343946727,47.15990377833152],[15.90559380309327,47.1600527174966]]],[[[16.050620987635487,47.156687934222425],[16.051542819060824,47.17467370078465],[16.084045533127682,47.16489021638322],[16.083812301639306,47.16039384056739],[16.050620987635487,47.156687934222425]]],[[[14.705230398058827,47.18080362321441],[14.711711293092447,47.1762256846983],[14.705114139290409,47.176305138935696],[14.705230398058827,47.18080362321441]]],[[[15.104959888424487,47.292307928068546],[15.111721928638437,47.29670328793056],[15.111570828416147,47.292205328280744],[15.104959888424487,47.292307928068546]]],[[[15.318352107908577,47.33830922188425],[15.32479898954731,47.33369663202387],[15.318183295080425,47.33381157327373],[15.318352107908577,47.33830922188425]]],[[[15.388008461971454,47.427092860774025],[15.394460102124976,47.422476400057995],[15.387833424405684,47.42259537142974],[15.388008461971454,47.427092860774025]]],[[[14.647605465957476,47.518961781579904],[14.65435831658754,47.52338399749703],[14.654245649017088,47.51888565896036],[14.647605465957476,47.518961781579904]]],[[[15.531481577331167,47.527949963417115],[15.537932985136194,47.523325503493375],[15.531293945376918,47.52345277604936],[15.531481577331167,47.527949963417115]]],[[[14.847577231850183,47.54349966634555],[14.85409040361448,47.53891385706117],[14.847448003258297,47.53900154788365],[14.847577231850183,47.54349966634555]]],[[[14.967426145274429,47.55085821338505],[14.954138695401834,47.55104633093724],[14.954277076917739,47.555544314918954],[14.967705203605835,47.55985414550286],[14.967426145274429,47.55085821338505]]],[[[14.874806803872769,47.56563694979888],[14.888230988635874,47.569956066356866],[14.888098217995022,47.56545801682335],[14.874806803872769,47.56563694979888]]],[[[14.861645797443114,47.57031242368285],[14.86842321734332,47.574721979558014],[14.868292128963308,47.57022391144274],[14.861645797443114,47.57031242368285]]],[[[14.888230988635874,47.569956066356866],[14.895143976043059,47.57886208675985],[14.901791331218035,47.57877163558829],[14.901523448372968,47.56977557934767],[14.888230988635874,47.569956066356866]]],[[[14.536874734528485,47.6146636681598],[14.543423791109836,47.61009559330633],[14.536771928786928,47.6101652988138],[14.536874734528485,47.6146636681598]]],[[[14.543527166216236,47.61459395675329],[14.55028354246919,47.619022213456894],[14.550179580208216,47.614523860240325],[14.543527166216236,47.61459395675329]]],[[[14.530324539116501,47.61923136537393],[14.536874734528485,47.6146636681598],[14.530222285242397,47.6147329944584],[14.530324539116501,47.61923136537393]]],[[[14.564010040512663,47.6368741746205],[14.570559506027928,47.63230457489562],[14.563904867347123,47.632375850842436],[14.564010040512663,47.6368741746205]]],[[[14.557354813986668,47.63694507133488],[14.56411523169046,47.64137249396033],[14.564010040512663,47.6368741746205],[14.557354813986668,47.63694507133488]]],[[[14.92023655863456,47.7495106616883],[14.919964637929073,47.74051498893038],[14.913296801681062,47.74060648804771],[14.913567578281699,47.749602176300144],[14.92023655863456,47.7495106616883]]],[[[14.546844538391438,47.75853916659043],[14.546636668898344,47.74954273709021],[14.539967110838866,47.74961262573938],[14.540173835438884,47.75860906707444],[14.546844538391438,47.75853916659043]]],[[[14.58019778356023,47.75818387193314],[14.586975774962307,47.762609825355526],[14.586868377987503,47.75811165456507],[14.58019778356023,47.75818387193314]]],[[[14.527036881380345,47.76774415365953],[14.533811616649263,47.77217322211677],[14.533708765026342,47.76767501377616],[14.527036881380345,47.76774415365953]]],[[[14.520670150630513,47.781307551545176],[14.527446102062349,47.78573697873016],[14.527343770540138,47.78123878041723],[14.520670150630513,47.781307551545176]]],[[[14.52107728920216,47.799300335885036],[14.507524100197752,47.7904403608573],[14.507725411038367,47.79943676537565],[14.52107728920216,47.799300335885036]]],[[[14.594727639119073,47.80751857063982],[14.594511347485998,47.79852234271633],[14.587835614899385,47.798595001572984],[14.58805075954089,47.80759124180245],[14.594727639119073,47.80751857063982]]],[[[14.861917650108063,47.80879264455134],[14.86872597176817,47.81320194047435],[14.868594260480556,47.80870412078124],[14.861917650108063,47.80879264455134]]],[[[14.855502168108222,47.817876445589825],[14.862048787870776,47.81329047174098],[14.855371581440439,47.81337861651227],[14.855502168108222,47.817876445589825]]],[[[14.963322910254526,47.84790340876365],[14.969863828863883,47.84331135854707],[14.963182977976617,47.84340574294127],[14.963322910254526,47.84790340876365]]],[[[14.943278490959768,47.84818426555511],[14.950098795629865,47.85258870925818],[14.949959987953243,47.84809103335541],[14.943278490959768,47.84818426555511]]],[[[15.640788079792442,47.89937439540732],[15.647275699281826,47.894744182794454],[15.64058971523068,47.894877765808694],[15.640788079792442,47.89937439540732]]],[[[15.64787262023983,47.908234018724926],[15.654360711954872,47.9036034204505],[15.647673612344915,47.90373741306418],[15.64787262023983,47.908234018724926]]]]},"properties":{}}]}